GLOBALSTAR M084         
1 38040U 11080A   25334.99562899 -.00000090  00000+0  77111-4 0  9999
2 38040  52.0012 260.6495 0001005  52.8699  27.7498 12.62265981643736
GLOBALSTAR M080         
1 38041U 11080B   25334.96654559 -.00000092  00000+0  67535-4 0  9993
2 38041  52.0064 262.3874 0000624  99.4167 338.9511 12.62271663643857
GLOBALSTAR M082         
1 38042U 11080C   25334.98733890 -.00000079  00000+0  13812-3 0  9995
2 38042  52.0065 217.8048 0000801  92.3564  10.2086 12.62265584644568
GLOBALSTAR M092         
1 38043U 11080D   25334.94632703 -.00000098  00000+0  30526-4 0  9996
2 38043  52.0104 308.3147 0000447  57.2455 338.3672 12.62267826643019
GLOBALSTAR M090         
1 38044U 11080E   25334.91513751 -.00000079  00000+0  13897-3 0  9995
2 38044  52.0107 211.9167 0000807  72.8059 300.4706 12.62264820644679
GLOBALSTAR M086         
1 38045U 11080F   25334.93951138 -.00000078  00000+0  14129-3 0  9991
2 38045  51.9883 212.0949 0001151  14.1729 358.8372 12.62280485644621
GLOBALSTAR M097         
1 39072U 13005A   25334.88545392 -.00000093  00000+0  62274-4 0  9998
2 39072  52.0025 126.9825 0000773 100.7680 259.3273 12.62267814591868
GLOBALSTAR M093         
1 39073U 13005B   25334.85939433 -.00000093  00000+0  60826-4 0  9990
2 39073  52.0087 120.3340 0000580 113.7743 246.3185 12.62270844591817
